[
    {
        "Altitude(m)": 707211.3693969933,
        "Argument of Periapsis(deg)": 0.0011390121186627068,
        "Eccentricity": 0.0,
        "Inclination(deg)": 45.0,
        "Latitude(deg)": 44.72463612104851,
        "Longitude(deg)": 175.051271259043,
        "Mean Anomaly(deg)": 82.97152166474811,
        "RAAN(deg)": 194.9989248058542,
        "Satellite Name": "Constellation 1 863",
        "Satellite Number": 863,
        "Semi-Major Axis(m)": 7083131.272910544,
        "Time(s)": 19
    },
    {
        "Altitude(m)": 707213.0408341427,
        "Argument of Periapsis(deg)": 0.0011989601249081123,
        "Eccentricity": 0.0,
        "Inclination(deg)": 45.0,
        "Latitude(deg)": 44.731999083575445,
        "Longitude(deg)": 175.13179628497272,
        "Mean Anomaly(deg)": 83.03222280499801,
        "RAAN(deg)": 194.9988682166886,
        "Satellite Name": "Constellation 1 863",
        "Satellite Number": 863,
        "Semi-Major Axis(m)": 7083131.272910544,
        "Time(s)": 20
    },
    {
        "Altitude(m)": 707214.6981924594,
        "Argument of Periapsis(deg)": 0.001258908131153518,
        "Eccentricity": 0.0,
        "Inclination(deg)": 45.0,
        "Latitude(deg)": 44.739299328962154,
        "Longitude(deg)": 175.21234268373033,
        "Mean Anomaly(deg)": 83.0929239452479,
        "RAAN(deg)": 194.99881162752305,
        "Satellite Name": "Constellation 1 863",
        "Satellite Number": 863,
        "Semi-Major Axis(m)": 7083131.272910544,
        "Time(s)": 21
    },
    {
        "Altitude(m)": 707216.3414622681,
        "Argument of Periapsis(deg)": 0.0013188561373989236,
        "Eccentricity": 0.0,
        "Inclination(deg)": 45.0,
        "Latitude(deg)": 44.746536825741,
        "Longitude(deg)": 175.29291011509147,
        "Mean Anomaly(deg)": 83.1536250854978,
        "RAAN(deg)": 194.9987550383575,
        "Satellite Name": "Constellation 1 863",
        "Satellite Number": 863,
        "Semi-Major Axis(m)": 7083131.272910544,
        "Time(s)": 22
    },
    {
        "Altitude(m)": 707217.9706339756,
        "Argument of Periapsis(deg)": 0.0013788041436443293,
        "Eccentricity": 0.0,
        "Inclination(deg)": 45.0,
        "Latitude(deg)": 44.75371154269429,
        "Longitude(deg)": 175.3734987427608,
        "Mean Anomaly(deg)": 83.21432622574766,
        "RAAN(deg)": 194.9986984491919,
        "Satellite Name": "Constellation 1 863",
        "Satellite Number": 863,
        "Semi-Major Axis(m)": 7083131.272910544,
        "Time(s)": 23
    },
    {
        "Altitude(m)": 707219.5856980786,
        "Argument of Periapsis(deg)": 0.001438752149889735,
        "Eccentricity": 0.0,
        "Inclination(deg)": 45.0,
        "Latitude(deg)": 44.7608234488567,
        "Longitude(deg)": 175.45410822579265,
        "Mean Anomaly(deg)": 83.27502736599759,
        "RAAN(deg)": 194.99864186002634,
        "Satellite Name": "Constellation 1 863",
        "Satellite Number": 863,
        "Semi-Major Axis(m)": 7083131.272910544,
        "Time(s)": 24
    },
    {
        "Altitude(m)": 707221.1866451459,
        "Argument of Periapsis(deg)": 0.0014987001561351404,
        "Eccentricity": 0.0,
        "Inclination(deg)": 45.0,
        "Latitude(deg)": 44.76787251351482,
        "Longitude(deg)": 175.5347383909816,
        "Mean Anomaly(deg)": 83.33572850624748,
        "RAAN(deg)": 194.9985852708608,
        "Satellite Name": "Constellation 1 863",
        "Satellite Number": 863,
        "Semi-Major Axis(m)": 7083131.272910544,
        "Time(s)": 25
    },
    {
        "Altitude(m)": 707222.7734658342,
        "Argument of Periapsis(deg)": 0.001558648162380546,
        "Eccentricity": 0.0,
        "Inclination(deg)": 45.0,
        "Latitude(deg)": 44.77485870620787,
        "Longitude(deg)": 175.6153890647681,
        "Mean Anomaly(deg)": 83.3964296464974,
        "RAAN(deg)": 194.9985286816952,
        "Satellite Name": "Constellation 1 863",
        "Satellite Number": 863,
        "Semi-Major Axis(m)": 7083131.272910544,
        "Time(s)": 26
    },
    {
        "Altitude(m)": 707224.346150885,
        "Argument of Periapsis(deg)": 0.0016185961686259519,
        "Eccentricity": 0.0,
        "Inclination(deg)": 45.0,
        "Latitude(deg)": 44.78178199672846,
        "Longitude(deg)": 175.69606007324094,
        "Mean Anomaly(deg)": 83.45713078674727,
        "RAAN(deg)": 194.99847209252965,
        "Satellite Name": "Constellation 1 863",
        "Satellite Number": 863,
        "Semi-Major Axis(m)": 7083131.272910544,
        "Time(s)": 27
    },
    {
        "Altitude(m)": 707225.9046911229,
        "Argument of Periapsis(deg)": 0.0016785441748713573,
        "Eccentricity": 0.0,
        "Inclination(deg)": 45.0,
        "Latitude(deg)": 44.78864235512321,
        "Longitude(deg)": 175.7767512421404,
        "Mean Anomaly(deg)": 83.51783192699719,
        "RAAN(deg)": 194.99841550336404,
        "Satellite Name": "Constellation 1 863",
        "Satellite Number": 863,
        "Semi-Major Axis(m)": 7083131.272910544,
        "Time(s)": 28
    },
    {
        "Altitude(m)": 707227.4490774529,
        "Argument of Periapsis(deg)": 0.001738492181116763,
        "Eccentricity": 0.0,
        "Inclination(deg)": 45.0,
        "Latitude(deg)": 44.795439751693216,
        "Longitude(deg)": 175.85746239686048,
        "Mean Anomaly(deg)": 83.57853306724706,
        "RAAN(deg)": 194.9983589141985,
        "Satellite Name": "Constellation 1 863",
        "Satellite Number": 863,
        "Semi-Major Axis(m)": 7083131.272910544,
        "Time(s)": 29
    },
    {
        "Altitude(m)": 707228.97930087,
        "Argument of Periapsis(deg)": 0.0017984401873621684,
        "Eccentricity": 0.0,
        "Inclination(deg)": 45.0,
        "Latitude(deg)": 44.80217415699507,
        "Longitude(deg)": 175.93819319435448,
        "Mean Anomaly(deg)": 83.63923420749695,
        "RAAN(deg)": 194.99830232503294,
        "Satellite Name": "Constellation 1 863",
        "Satellite Number": 863,
        "Semi-Major Axis(m)": 7083131.272910544,
        "Time(s)": 30
    },
    {
        "Altitude(m)": 707230.4953524432,
        "Argument of Periapsis(deg)": 0.0018583881936075745,
        "Eccentricity": 0.0,
        "Inclination(deg)": 45.0,
        "Latitude(deg)": 44.80884554184032,
        "Longitude(deg)": 176.01894379552672,
        "Mean Anomaly(deg)": 83.69993534774693,
        "RAAN(deg)": 194.99824573586736,
        "Satellite Name": "Constellation 1 863",
        "Satellite Number": 863,
        "Semi-Major Axis(m)": 7083131.272910544,
        "Time(s)": 31
    },
    {
        "Altitude(m)": 707231.99722333,
        "Argument of Periapsis(deg)": 0.0019183361998529795,
        "Eccentricity": 0.0,
        "Inclination(deg)": 45.0,
        "Latitude(deg)": 44.815453877297614,
        "Longitude(deg)": 176.09971385665148,
        "Mean Anomaly(deg)": 83.7606364879968,
        "RAAN(deg)": 194.9981891467018,
        "Satellite Name": "Constellation 1 863",
        "Satellite Number": 863,
        "Semi-Major Axis(m)": 7083131.272910544,
        "Time(s)": 32
    },
    {
        "Altitude(m)": 707233.4849047725,
        "Argument of Periapsis(deg)": 0.0019782842060983856,
        "Eccentricity": 0.0,
        "Inclination(deg)": 45.0,
        "Latitude(deg)": 44.821999134692305,
        "Longitude(deg)": 176.1805032017654,
        "Mean Anomaly(deg)": 83.82133762824664,
        "RAAN(deg)": 194.99813255753625,
        "Satellite Name": "Constellation 1 863",
        "Satellite Number": 863,
        "Semi-Major Axis(m)": 7083131.272910544,
        "Time(s)": 33
    },
    {
        "Altitude(m)": 707234.9583880925,
        "Argument of Periapsis(deg)": 0.0020382322123437906,
        "Eccentricity": 0.0,
        "Inclination(deg)": 45.0,
        "Latitude(deg)": 44.82848128560736,
        "Longitude(deg)": 176.2613116545725,
        "Mean Anomaly(deg)": 83.88203876849656,
        "RAAN(deg)": 194.99807596837064,
        "Satellite Name": "Constellation 1 863",
        "Satellite Number": 863,
        "Semi-Major Axis(m)": 7083131.272910544,
        "Time(s)": 34
    },
    {
        "Altitude(m)": 707236.417664697,
        "Argument of Periapsis(deg)": 0.002098180218589197,
        "Eccentricity": 0.0,
        "Inclination(deg)": 45.0,
        "Latitude(deg)": 44.83490030188369,
        "Longitude(deg)": 176.34213903844682,
        "Mean Anomaly(deg)": 83.94273990874649,
        "RAAN(deg)": 194.9980193792051,
        "Satellite Name": "Constellation 1 863",
        "Satellite Number": 863,
        "Semi-Major Axis(m)": 7083131.272910544,
        "Time(s)": 35
    },
    {
        "Altitude(m)": 707237.8627260784,
        "Argument of Periapsis(deg)": 0.002158128224834602,
        "Eccentricity": 0.0,
        "Inclination(deg)": 45.0,
        "Latitude(deg)": 44.84125615562099,
        "Longitude(deg)": 176.42298517643542,
        "Mean Anomaly(deg)": 84.00344104899635,
        "RAAN(deg)": 194.9979627900395,
        "Satellite Name": "Constellation 1 863",
        "Satellite Number": 863,
        "Semi-Major Axis(m)": 7083131.272910544,
        "Time(s)": 36
    },
    {
        "Altitude(m)": 707239.2935638111,
        "Argument of Periapsis(deg)": 0.002218076231080008,
        "Eccentricity": 0.0,
        "Inclination(deg)": 45.0,
        "Latitude(deg)": 44.84754881917846,
        "Longitude(deg)": 176.50384972316414,
        "Mean Anomaly(deg)": 84.06414218924628,
        "RAAN(deg)": 194.99790620087396,
        "Satellite Name": "Constellation 1 863",
        "Satellite Number": 863,
        "Semi-Major Axis(m)": 7083131.272910544,
        "Time(s)": 37
    }
]